{
  "type": "FeatureCollection",
  "features": [
    {
      "type": "Feature",
      "properties": {
        "norad_id": 33972,
        "name": "COSMOS 2251 DEB",
        "group": "cosmos-2251-debris",
        "lat": 45.91605878174128,
        "lon": -147.49210883213655,
        "alt_km": 703.8891718252162,
        "timestamp": "2025-12-10T05:46:14.219857+00:00",
        "meta_object_name": "COSMOS 2251 DEB",
        "meta_object_id": "1993-036FF",
        "meta_epoch": "2025-12-08T09:14:11.114304",
        "meta_mean_motion": 14.36176822,
        "meta_eccentricity": 0.01230842,
        "meta_inclination": 73.9938,
        "meta_ra_of_asc_node": 198.6837,
        "meta_arg_of_pericenter": 7.3687,
        "meta_mean_anomaly": 170.0122,
        "meta_ephemeris_type": 0,
        "meta_classification_type": "U",
        "meta_norad_cat_id": 33972,
        "meta_element_set_no": 999,
        "meta_rev_at_epoch": 87011,
        "meta_bstar": 0.0015608528,
        "meta_mean_motion_dot": 4.938e-05,
        "meta_mean_motion_ddot": 0,
        "tle_line1": "1 33972U 93036FF  25342.38485086  .00004938  00000+0  15609-2 0  9999",
        "tle_line2": "2 33972  73.9938 198.6837 0123084   7.3687 170.0122 14.36176822870116"
      },
      "geometry": {
        "type": "Point",
        "coordinates": [
          -147.49210883213655,
          45.91605878174128
        ]
      }
    },
    {
      "type": "Feature",
      "properties": {
        "norad_id": 33973,
        "name": "COSMOS 2251 DEB",
        "group": "cosmos-2251-debris",
        "lat": 68.80397009165775,
        "lon": 155.25016355900303,
        "alt_km": 762.686035596571,
        "timestamp": "2025-12-10T05:46:14.219867+00:00",
        "meta_object_name": "COSMOS 2251 DEB",
        "meta_object_id": "1993-036FG",
        "meta_epoch": "2025-12-09T14:32:15.091008",
        "meta_mean_motion": 14.4538571,
        "meta_eccentricity": 0.004727,
        "meta_inclination": 74.0079,
        "meta_ra_of_asc_node": 108.744,
        "meta_arg_of_pericenter": 287.7375,
        "meta_mean_anomaly": 86.6082,
        "meta_ephemeris_type": 0,
        "meta_classification_type": "U",
        "meta_norad_cat_id": 33973,
        "meta_element_set_no": 999,
        "meta_rev_at_epoch": 88555,
        "meta_bstar": 0.00027525,
        "meta_mean_motion_dot": 9.53e-06,
        "meta_mean_motion_ddot": 0,
        "tle_line1": "1 33973U 93036FG  25343.60573022  .00000953  00000+0  27525-3 0  9998",
        "tle_line2": "2 33973  74.0079 108.7440 0047270 287.7375  86.6082 14.45385710885556"
      },
      "geometry": {
        "type": "Point",
        "coordinates": [
          155.25016355900303,
          68.80397009165775
        ]
      }
    },
    {
      "type": "Feature",
      "properties": {
        "norad_id": 33975,
        "name": "COSMOS 2251 DEB",
        "group": "cosmos-2251-debris",
        "lat": 55.73371616317545,
        "lon": 114.10086613298729,
        "alt_km": 1018.9055236957784,
        "timestamp": "2025-12-10T05:46:14.219877+00:00",
        "meta_object_name": "COSMOS 2251 DEB",
        "meta_object_id": "1993-036FJ",
        "meta_epoch": "2025-12-09T17:28:39.314784",
        "meta_mean_motion": 14.00515385,
        "meta_eccentricity": 0.0191374,
        "meta_inclination": 73.8024,
        "meta_ra_of_asc_node": 89.7466,
        "meta_arg_of_pericenter": 223.0996,
        "meta_mean_anomaly": 135.502,
        "meta_ephemeris_type": 0,
        "meta_classification_type": "U",
        "meta_norad_cat_id": 33975,
        "meta_element_set_no": 999,
        "meta_rev_at_epoch": 85787,
        "meta_bstar": 0.0011881,
        "meta_mean_motion_dot": 2.041e-05,
        "meta_mean_motion_ddot": 0,
        "tle_line1": "1 33975U 93036FJ  25343.72823281  .00002041  00000+0  11881-2 0  9995",
        "tle_line2": "2 33975  73.8024  89.7466 0191374 223.0996 135.5020 14.00515385857872"
      },
      "geometry": {
        "type": "Point",
        "coordinates": [
          114.10086613298729,
          55.73371616317545
        ]
      }
    },
    {
      "type": "Feature",
      "properties": {
        "norad_id": 33980,
        "name": "COSMOS 2251 DEB",
        "group": "cosmos-2251-debris",
        "lat": 73.63744022452971,
        "lon": 166.76571994528624,
        "alt_km": 699.1822848826096,
        "timestamp": "2025-12-10T05:46:14.219887+00:00",
        "meta_object_name": "COSMOS 2251 DEB",
        "meta_object_id": "1993-036FP",
        "meta_epoch": "2025-12-09T16:52:58.778112",
        "meta_mean_motion": 14.58620527,
        "meta_eccentricity": 0.0028862,
        "meta_inclination": 74.0215,
        "meta_ra_of_asc_node": 65.1826,
        "meta_arg_of_pericenter": 210.8804,
        "meta_mean_anomaly": 304.3631,
        "meta_ephemeris_type": 0,
        "meta_classification_type": "U",
        "meta_norad_cat_id": 33980,
        "meta_element_set_no": 999,
        "meta_rev_at_epoch": 88750,
        "meta_bstar": 0.0012385,
        "meta_mean_motion_dot": 5.775e-05,
        "meta_mean_motion_ddot": 0,
        "tle_line1": "1 33980U 93036FP  25343.70345808  .00005775  00000+0  12385-2 0  9990",
        "tle_line2": "2 33980  74.0215  65.1826 0028862 210.8804 304.3631 14.58620527887509"
      },
      "geometry": {
        "type": "Point",
        "coordinates": [
          166.76571994528624,
          73.63744022452971
        ]
      }
    },
    {
      "type": "Feature",
      "properties": {
        "norad_id": 33982,
        "name": "COSMOS 2251 DEB",
        "group": "cosmos-2251-debris",
        "lat": -61.74876873242821,
        "lon": -27.408579065780227,
        "alt_km": 722.4954096018628,
        "timestamp": "2025-12-10T05:46:14.219897+00:00",
        "meta_object_name": "COSMOS 2251 DEB",
        "meta_object_id": "1993-036FR",
        "meta_epoch": "2025-12-09T19:22:01.110720",
        "meta_mean_motion": 14.60194894,
        "meta_eccentricity": 0.0074992,
        "meta_inclination": 74.0709,
        "meta_ra_of_asc_node": 5.5231,
        "meta_arg_of_pericenter": 50.88,
        "meta_mean_anomaly": 125.8169,
        "meta_ephemeris_type": 0,
        "meta_classification_type": "U",
        "meta_norad_cat_id": 33982,
        "meta_element_set_no": 999,
        "meta_rev_at_epoch": 89116,
        "meta_bstar": 0.00060843,
        "meta_mean_motion_dot": 3.021e-05,
        "meta_mean_motion_ddot": 0,
        "tle_line1": "1 33982U 93036FR  25343.80695730  .00003021  00000+0  60843-3 0  9990",
        "tle_line2": "2 33982  74.0709   5.5231 0074992  50.8800 125.8169 14.60194894891165"
      },
      "geometry": {
        "type": "Point",
        "coordinates": [
          -27.408579065780227,
          -61.74876873242821
        ]
      }
    },
    {
      "type": "Feature",
      "properties": {
        "norad_id": 33983,
        "name": "COSMOS 2251 DEB",
        "group": "cosmos-2251-debris",
        "lat": -45.37148562571375,
        "lon": 134.8982199103864,
        "alt_km": 721.7105974974411,
        "timestamp": "2025-12-10T05:46:14.219907+00:00",
        "meta_object_name": "COSMOS 2251 DEB",
        "meta_object_id": "1993-036FS",
        "meta_epoch": "2025-12-09T11:55:26.624352",
        "meta_mean_motion": 14.50649612,
        "meta_eccentricity": 0.00213884,
        "meta_inclination": 74.0493,
        "meta_ra_of_asc_node": 153.1364,
        "meta_arg_of_pericenter": 256.4263,
        "meta_mean_anomaly": 133.9147,
        "meta_ephemeris_type": 0,
        "meta_classification_type": "U",
        "meta_norad_cat_id": 33983,
        "meta_element_set_no": 999,
        "meta_rev_at_epoch": 88582,
        "meta_bstar": 0.00089636767,
        "meta_mean_motion_dot": 3.503e-05,
        "meta_mean_motion_ddot": 0,
        "tle_line1": "1 33983U 93036FS  25343.49683593  .00003503  00000+0  89637-3 0  9997",
        "tle_line2": "2 33983  74.0493 153.1364 0021388 256.4263 133.9147 14.50649612885825"
      },
      "geometry": {
        "type": "Point",
        "coordinates": [
          134.8982199103864,
          -45.37148562571375
        ]
      }
    },
    {
      "type": "Feature",
      "properties": {
        "norad_id": 33984,
        "name": "COSMOS 2251 DEB",
        "group": "cosmos-2251-debris",
        "lat": -72.48895276373264,
        "lon": -73.419735163448,
        "alt_km": 678.7185547739191,
        "timestamp": "2025-12-10T05:46:14.219917+00:00",
        "meta_object_name": "COSMOS 2251 DEB",
        "meta_object_id": "1993-036FT",
        "meta_epoch": "2025-12-09T11:04:20.798976",
        "meta_mean_motion": 14.66318161,
        "meta_eccentricity": 0.00233413,
        "meta_inclination": 74.0096,
        "meta_ra_of_asc_node": 353.4318,
        "meta_arg_of_pericenter": 192.4125,
        "meta_mean_anomaly": 293.6081,
        "meta_ephemeris_type": 0,
        "meta_classification_type": "U",
        "meta_norad_cat_id": 33984,
        "meta_element_set_no": 999,
        "meta_rev_at_epoch": 89018,
        "meta_bstar": 0.0012650084,
        "meta_mean_motion_dot": 6.985e-05,
        "meta_mean_motion_ddot": 0,
        "tle_line1": "1 33984U 93036FT  25343.46135184  .00006985  00000+0  12650-2 0  9990",
        "tle_line2": "2 33984  74.0096 353.4318 0023341 192.4125 293.6081 14.66318161890181"
      },
      "geometry": {
        "type": "Point",
        "coordinates": [
          -73.419735163448,
          -72.48895276373264
        ]
      }
    }
  ]
}